NORAD_CAT_ID,OBJECT_NAME,OBJECT_TYPE,EPOCH,MEAN_MOTION,ECCENTRICITY,INCLINATION,RA_OF_ASC_NODE,ARG_OF_PERICENTER,MEAN_ANOMALY,BSTAR,MEAN_MOTION_DOT,MEAN_MOTION_DDOT,TLE_LINE0,TLE_LINE1,TLE_LINE2,SEMIMAJOR_AXIS,PERIOD,APOGEE,PERIGEE,DECAYED
56807.0,STARLINK-6073,PAYLOAD,2023-11-21 14:00:01,15.51229921,0.0003169,69.9996,283.7975,270.1861,29.7555,-0.00043155,-0.00025437,0.0,0 STARLINK-6073,1 56807U 23078AS  23325.58334491 -.00025437  00000-0 -43155-3 0  9992,2 56807  69.9996 283.7975 0003169 270.1861  29.7555 15.51229921  6030,6791.271,92.83,415.288,410.984,0.0
56807.0,STARLINK-6073,PAYLOAD,2023-11-21 20:00:01,15.51216018,0.0003223,69.9998,283.1141,265.0215,350.6013,0.00062083,0.00036459,0.0,0 STARLINK-6073,1 56807U 23078AS  23325.83334491  .00036459  00000-0  62083-3 0  9995,2 56807  69.9998 283.1141 0003223 265.0215 350.6013 15.51216018 27691,6791.312,92.83,415.365,410.988,0.0
56807.0,STARLINK-6073,PAYLOAD,2023-11-22 00:00:00,15.51262566,0.000326,69.9999,282.6584,266.5674,199.504,-0.0010625,-0.00062172,0.0,0 STARLINK-6073,1 56807U 23078AS  23326.00001157 -.00062172  00000-0 -10625-2 0  9992,2 56807  69.9999 282.6584 0003260 266.5674 199.5040 15.51262566  5991,6791.176,92.828,415.255,410.827,0.0
56807.0,STARLINK-6073,PAYLOAD,2023-11-22 01:05:27,15.51270578,0.0003319,70.0003,282.5332,199.5296,160.5764,0.00011206,6.434e-05,0.0,0 STARLINK-6073,1 56807U 23078AS  23326.04545979  .00006434  00000-0  11206-3 0  9995,2 56807  70.0003 282.5332 0003319 199.5296 160.5764 15.51270578 27728,6791.152,92.827,415.271,410.763,0.0
56807.0,STARLINK-6073,PAYLOAD,2023-11-22 07:16:53,15.51273673,0.0002846,69.9973,281.826,261.6015,98.4848,9.8864e-05,5.656e-05,0.0,0 STARLINK-6073,1 56807U 23078AS  23326.30339276  .00005656  00000-0  98864-4 0  9996,2 56807  69.9973 281.8260 0002846 261.6015  98.4848 15.51273673 27762,6791.143,92.827,414.941,411.076,0.0
56807.0,STARLINK-6073,PAYLOAD,2023-11-23 00:18:22,15.5121997,0.0001987,70.0028,279.898,223.1924,136.9107,-8.2782e-06,-6.5e-06,0.0,0 STARLINK-6073,1 56807U 23078AS  23327.01276504 -.00000650  00000-0 -82782-5 0  9993,2 56807  70.0028 279.8980 0001987 223.1924 136.9107 15.51219970 27877,6791.3,92.83,414.514,411.816,0.0
56807.0,STARLINK-6073,PAYLOAD,2023-11-23 06:29:49,15.51210551,0.0003117,69.9982,279.1871,263.6124,96.4708,-5.0725e-05,-3.142e-05,0.0,0 STARLINK-6073,1 56807U 23078AS  23327.27071214 -.00003142  00000-0 -50725-4 0  9992,2 56807  69.9982 279.1871 0003117 263.6124  96.4708 15.51210551 27911,6791.328,92.831,415.309,411.076,0.0
56807.0,STARLINK-6073,PAYLOAD,2023-11-23 21:58:24,15.51238055,0.0003159,69.9988,277.4229,258.9353,101.1478,-0.00013534,-8.11e-05,0.0,0 STARLINK-6073,1 56807U 23078AS  23327.91555638 -.00008110  00000-0 -13534-3 0  9996,2 56807  69.9988 277.4229 0003159 258.9353 101.1478 15.51238055 27751,6791.247,92.829,415.258,410.967,0.0
56807.0,STARLINK-6073,PAYLOAD,2023-11-23 23:31:15,15.51237117,0.0003167,69.9988,277.2466,258.7116,101.3714,-0.00013439,-8.054e-05,0.0,0 STARLINK-6073,1 56807U 23078AS  23327.98004077 -.00008054  00000-0 -13439-3 0  9990,2 56807  69.9988 277.2466 0003167 258.7116 101.3714 15.51237117 28020,6791.25,92.829,415.266,410.964,0.0
56807.0,STARLINK-6073,PAYLOAD,2023-11-24 07:15:32,15.51251199,0.0003058,69.9987,276.3645,242.0282,118.0594,-0.00015593,-9.322e-05,0.0,0 STARLINK-6073,1 56807U 23078AS  23328.30245427 -.00009322  00000-0 -15593-3 0  9995,2 56807  69.9987 276.3645 0003058 242.0282 118.0594 15.51251199 28079,6791.209,92.828,415.151,410.997,0.0
56807.0,STARLINK-6073,PAYLOAD,2023-11-24 22:44:06,15.51205021,0.0003401,69.998,274.6002,266.8769,93.2028,5.2191e-05,2.9e-05,0.0,0 STARLINK-6073,1 56807U 23078AS  23328.94730261  .00002900  00000-0  52191-4 0  9999,2 56807  69.9980 274.6002 0003401 266.8769  93.2028 15.51205021 27917,6791.344,92.831,415.518,410.899,0.0
56807.0,STARLINK-6073,PAYLOAD,2023-11-25 00:16:58,15.51209838,0.0003339,69.9982,274.4259,264.3083,95.7723,4.4541e-05,2.451e-05,0.0,0 STARLINK-6073,1 56807U 23078AS  23329.01178576  .00002451  00000-0  44541-4 0  9994,2 56807  69.9982 274.4259 0003339 264.3083  95.7723 15.51209838 28182,6791.33,92.831,415.462,410.927,0.0
56807.0,STARLINK-6073,PAYLOAD,2023-11-25 06:28:24,15.5121217,0.0003381,69.9979,273.7194,268.4246,91.6553,4.9213e-05,2.726e-05,0.0,0 STARLINK-6073,1 56807U 23078AS  23329.26972425  .00002726  00000-0  49213-4 0  9992,2 56807  69.9979 273.7194 0003381 268.4246  91.6553 15.51212170 27965,6791.323,92.831,415.484,410.892,0.0
56807.0,STARLINK-6073,PAYLOAD,2023-11-25 21:56:58,15.51220664,0.0003481,69.9978,271.9562,270.0373,90.0415,4.6294e-05,2.555e-05,0.0,0 STARLINK-6073,1 56807U 23078AS  23329.91456762  .00002555  00000-0  46294-4 0  9991,2 56807  69.9978 271.9562 0003481 270.0373  90.0415 15.51220664 28063,6791.298,92.83,415.527,410.799,0.0
56807.0,STARLINK-6073,PAYLOAD,2023-11-25 23:29:50,15.51220747,0.0003494,69.9977,271.7799,269.8434,90.2352,4.3343e-05,2.382e-05,0.0,0 STARLINK-6073,1 56807U 23078AS  23329.97905257  .00002382  00000-0  43343-4 0  9995,2 56807  69.9977 271.7799 0003494 269.8434  90.2352 15.51220747 28334,6791.298,92.83,415.536,410.79,0.0
56807.0,STARLINK-6073,PAYLOAD,2023-11-26 11:53:01,15.5099819,0.0002866,69.998,270.3704,289.3789,70.7087,-0.00048235,-0.00028169,0.0,0 STARLINK-6073,1 56807U 23078AS  23330.49515209 -.00028169  00000-0 -48235-3 0  9995,2 56807  69.9980 270.3704 0002866 289.3789  70.7087 15.50998190 28411,6791.947,92.843,415.759,411.866,0.0
56807.0,STARLINK-6073,PAYLOAD,2023-11-26 19:36:59,15.51246654,0.0006603,69.998,269.4874,245.0737,114.9763,7.2332e-05,4.091e-05,0.0,0 STARLINK-6073,1 56807U 23078AS  23330.81735374  .00004091  00000-0  72332-4 0  9990,2 56807  69.9980 269.4874 0006603 245.0737 114.9763 15.51246654 28462,6791.222,92.829,417.571,408.603,0.0
56807.0,STARLINK-6073,PAYLOAD,2023-11-26 21:10:39,15.50599578,0.00033,69.9976,269.3132,271.7232,88.3575,-0.0014096,-0.00080331,0.0,0 STARLINK-6073,1 56807U 23078AS  23330.88240036 -.00080331  00000-0 -14096-2 0  9997,2 56807  69.9976 269.3132 0003300 271.7232  88.3575 15.50599578 28213,6793.111,92.867,417.218,412.735,0.0
56807.0,STARLINK-6073,PAYLOAD,2023-11-27 06:28:43,15.5016454,0.0004222,69.9977,268.2581,294.409,65.6655,-0.0021469,-0.00119823,0.0,0 STARLINK-6073,1 56807U 23078AS  23331.26994974 -.00119823  00000-0 -21469-2 0  9998,2 56807  69.9977 268.2581 0004222 294.4090  65.6655 15.50164540 28537,6794.382,92.893,419.116,413.379,0.0
56807.0,STARLINK-6073,PAYLOAD,2023-11-27 22:00:00,15.47842032,0.0003476,70.0014,266.4947,274.208,92.3641,-0.019989,-0.00955808,0.0,0 STARLINK-6073,1 56807U 23078AS  23331.91667824 -.00955808  00000-0 -19989-1 0  9995,2 56807  70.0014 266.4947 0003476 274.2080  92.3641 15.47842032 28631,6801.177,93.033,425.406,420.678,0.0
56807.0,STARLINK-6073,PAYLOAD,2023-11-28 14:00:01,15.46488335,0.0003336,70.0011,264.683,275.6867,202.978,-0.019462,-0.00892961,0.0,0 STARLINK-6073,1 56807U 23078AS  23332.58334491 -.00892961  00000-0 -19462-1 0  9996,2 56807  70.0011 264.6830 0003336 275.6867 202.9780 15.46488335  5978,6805.145,93.114,429.281,424.74,0.0
56807.0,STARLINK-6073,PAYLOAD,2023-11-28 20:00:01,15.46026898,0.0003376,70.0014,264.0047,273.047,156.8204,-0.020332,-0.0091617,0.0,0 STARLINK-6073,1 56807U 23078AS  23332.83334491 -.00916170  00000-0 -20332-1 0  9991,2 56807  70.0014 264.0047 0003376 273.0470 156.8204 15.46026898 28774,6806.499,93.142,430.662,426.067,0.0
56807.0,STARLINK-6073,PAYLOAD,2023-11-29 14:00:01,15.44534142,0.0003285,70.0011,261.9725,270.3565,10.5462,-0.020954,-0.00898516,0.0,0 STARLINK-6073,1 56807U 23078AS  23333.58334491 -.00898516  00000-0 -20954-1 0  9997,2 56807  70.0011 261.9725 0003285 270.3565  10.5462 15.44534142 28893,6810.884,93.232,434.987,430.512,0.0
56807.0,STARLINK-6073,PAYLOAD,2023-11-30 14:00:01,15.42571016,0.0003335,70.0008,259.27,271.7743,164.3286,-0.022079,-0.00886804,0.0,0 STARLINK-6073,1 56807U 23078AS  23334.58334491 -.00886804  00000-0 -22079-1 0  9995,2 56807  70.0008 259.2700 0003335 271.7743 164.3286 15.42571016 29040,6816.662,93.351,440.8,436.253,0.0
56807.0,STARLINK-6073,PAYLOAD,2023-12-01 06:00:00,15.41276436,0.0003279,70.0003,257.4729,276.322,259.3293,-0.023153,-0.00890169,0.0,0 STARLINK-6073,1 56807U 23078AS  23335.25001157 -.00890169  00000-0 -23153-1 0  9993,2 56807  70.0003 257.4729 0003279 276.3220 259.3293 15.41276436 29145,6820.478,93.429,444.579,440.107,0.0
56807.0,STARLINK-6073,PAYLOAD,2023-12-01 22:00:00,15.40008782,0.0003347,70.0006,255.6794,268.1131,3.9491,-0.025859,-0.00948039,0.0,0 STARLINK-6073,1 56807U 23078AS  23335.91667824 -.00948039  00000-0 -25859-1 0  9990,2 56807  70.0006 255.6794 0003347 268.1131   3.9491 15.40008782 29257,6824.22,93.506,448.369,443.801,0.0
56807.0,STARLINK-6073,PAYLOAD,2023-12-02 14:00:01,15.3865072,0.000348,70.0001,253.8891,269.161,96.2165,-0.024752,-0.00873892,0.0,0 STARLINK-6073,1 56807U 23078AS  23336.58334491 -.00873892  00000-0 -24752-1 0  9990,2 56807  70.0001 253.8891 0003480 269.1610  96.2165 15.38650720  6037,6828.235,93.588,452.477,447.724,0.0
56807.0,STARLINK-6073,PAYLOAD,2023-12-02 22:00:00,15.38056063,0.0003406,70.0004,252.9954,270.0003,140.8304,-0.027847,-0.00956668,0.0,0 STARLINK-6073,1 56807U 23078AS  23336.91667824 -.00956668  00000-0 -27847-1 0  9997,2 56807  70.0004 252.9954 0003406 270.0003 140.8304 15.38056063 29402,6829.995,93.625,454.186,449.534,0.0
56807.0,STARLINK-6073,PAYLOAD,2023-12-03 14:00:01,15.36691744,0.0003227,69.9999,251.2104,268.6955,230.7588,-0.026222,-0.00868923,0.0,0 STARLINK-6073,1 56807U 23078AS  23337.58334491 -.00868923  00000-0 -26222-1 0  9994,2 56807  69.9999 251.2104 0003227 268.6955 230.7588 15.36691744 29504,6834.037,93.708,458.108,453.697,0.0
56807.0,STARLINK-6073,PAYLOAD,2023-12-04 06:00:00,15.35413424,0.0003167,69.9999,249.429,271.5114,313.4058,-0.028453,-0.0090195,0.0,0 STARLINK-6073,1 56807U 23078AS  23338.25001157 -.00901950  00000-0 -28453-1 0  9995,2 56807  69.9999 249.4290 0003167 271.5114 313.4058 15.35413424 29611,6837.83,93.786,461.86,457.529,0.0
